CTC1_L_00290001-01
1 70431U 25706JY  26037.47804398  .00000000  00000+0  00000-0 0  9995
2 70431  85.0000   0.0000 0000000   0.0000   0.0000 15.18623352    17
CTC1_L_00290001-02
1 70432U 25446VA  26037.47804398  .00000000  00000+0  00000-0 0  9997
2 70432  85.0000   0.0000 0000000   0.0000  90.0000 15.18623352    17
CTC1_L_00290001-03
1 70433U 25183ZV  26037.47804398  .00000000  00000+0  00000-0 0  9996
2 70433  85.0000   0.0000 0000000   0.0000 180.0000 15.18623352    18
CTC1_L_00290001-04
1 70434U 25225GF  26037.47804398  .00000000  00000+0  00000-0 0  9994
2 70434  85.0000   0.0000 0000000   0.0000 270.0000 15.18623352    19
CTC1_L_00290002-01
1 70435U 25749GK  26037.47804398  .00000000  00000+0  00000-0 0  9996
2 70435  85.0000  12.0000 0000000   0.0000  12.0000 15.18623352    17
CTC1_L_00290002-02
1 70436U 23706BK  26037.47804398  .00000000  00000+0  00000-0 0  9998
2 70436  85.0000  12.0000 0000000   0.0000 102.0000 15.18623352    18
CTC1_L_00290002-03
1 70437U 23584RW  26037.47804398  .00000000  00000+0  00000-0 0  9993
2 70437  85.0000  12.0000 0000000   0.0000 192.0000 15.18623352    18
CTC1_L_00290002-04
1 70438U 24798QU  26037.47804398  .00000000  00000+0  00000-0 0  9992
2 70438  85.0000  12.0000 0000000   0.0000 282.0000 15.18623352    19
CTC1_L_00290003-01
1 70439U 23175KQ  26037.47804398  .00000000  00000+0  00000-0 0  9991
2 70439  85.0000  24.0000 0000000   0.0000  24.0000 15.18623352    17
CTC1_L_00290003-02
1 70440U 22280KA  26037.47804398  .00000000  00000+0  00000-0 0  9999
2 70440  85.0000  24.0000 0000000   0.0000 114.0000 15.18623352    19
CTC1_L_00290003-03
1 70441U 26084ZE  26037.47804398  .00000000  00000+0  00000-0 0  9996
2 70441  85.0000  24.0000 0000000   0.0000 204.0000 15.18623352    10
CTC1_L_00290003-04
1 70442U 24618UD  26037.47804398  .00000000  00000+0  00000-0 0  9998
2 70442  85.0000  24.0000 0000000   0.0000 294.0000 15.18623352    10
CTC1_L_00290004-01
1 70443U 26343VR  26037.47804398  .00000000  00000+0  00000-0 0  9996
2 70443  85.0000  36.0000 0000000   0.0000  36.0000 15.18623352    18
CTC1_L_00290004-02
1 70444U 25185C   26037.47804398  .00000000  00000+0  00000-0 0  9990
2 70444  85.0000  36.0000 0000000   0.0000 126.0000 15.18623352    19
CTC1_L_00290004-03
1 70445U 26357BE  26037.47804398  .00000000  00000+0  00000-0 0  9993
2 70445  85.0000  36.0000 0000000   0.0000 216.0000 15.18623352    10
CTC1_L_00290004-04
1 70446U 26309JQ  26037.47804398  .00000000  00000+0  00000-0 0  9991
2 70446  85.0000  36.0000 0000000   0.0000 306.0000 15.18623352    11
CTC1_L_00290005-01
1 70447U 26297DB  26037.47804398  .00000000  00000+0  00000-0 0  9998
2 70447  85.0000  48.0000 0000000   0.0000  48.0000 15.18623352    18
CTC1_L_00290005-02
1 70448U 23537GB  26037.47804398  .00000000  00000+0  00000-0 0  9993
2 70448  85.0000  48.0000 0000000   0.0000 138.0000 15.18623352    19
CTC1_L_00290005-03
1 70449U 24302EN  26037.47804398  .00000000  00000+0  00000-0 0  9995
2 70449  85.0000  48.0000 0000000   0.0000 228.0000 15.18623352    10
CTC1_L_00290005-04
1 70450U 22985RH  26037.47804398  .00000000  00000+0  00000-0 0  9992
2 70450  85.0000  48.0000 0000000   0.0000 318.0000 15.18623352    12
CTC1_L_00290006-01
1 70451U 26144UL  26037.47804398  .00000000  00000+0  00000-0 0  9994
2 70451  85.0000  60.0000 0000000   0.0000  60.0000 15.18623352    11
CTC1_L_00290006-02
1 70452U 26350YR  26037.47804398  .00000000  00000+0  00000-0 0  9994
2 70452  85.0000  60.0000 0000000   0.0000 150.0000 15.18623352    12
CTC1_L_00290006-03
1 70453U 23030CB  26037.47804398  .00000000  00000+0  00000-0 0  9997
2 70453  85.0000  60.0000 0000000   0.0000 240.0000 15.18623352    13
CTC1_L_00290006-04
1 70454U 23075LP  26037.47804398  .00000000  00000+0  00000-0 0  9997
2 70454  85.0000  60.0000 0000000   0.0000 330.0000 15.18623352    14
CTC1_L_00290007-01
1 70455U 23901TJ  26037.47804398  .00000000  00000+0  00000-0 0  9996
2 70455  85.0000  72.0000 0000000   0.0000  72.0000 15.18623352    11
CTC1_L_00290007-02
1 70456U 24506BT  26037.47804398  .00000000  00000+0  00000-0 0  9999
2 70456  85.0000  72.0000 0000000   0.0000 162.0000 15.18623352    12
CTC1_L_00290007-03
1 70457U 22922PD  26037.47804398  .00000000  00000+0  00000-0 0  9990
2 70457  85.0000  72.0000 0000000   0.0000 252.0000 15.18623352    13
CTC1_L_00290007-04
1 70458U 23870JA  26037.47804398  .00000000  00000+0  00000-0 0  9994
2 70458  85.0000  72.0000 0000000   0.0000 342.0000 15.18623352    14
CTC1_L_00290008-01
1 70459U 24293BE  26037.47804398  .00000000  00000+0  00000-0 0  9995
2 70459  85.0000  84.0000 0000000   0.0000  84.0000 15.18623352    11
CTC1_L_00290008-02
1 70460U 26194CI  26037.47804398  .00000000  00000+0  00000-0 0  9999
2 70460  85.0000  84.0000 0000000   0.0000 174.0000 15.18623352    13
CTC1_L_00290008-03
1 70461U 23586NT  26037.47804398  .00000000  00000+0  00000-0 0  9992
2 70461  85.0000  84.0000 0000000   0.0000 264.0000 15.18623352    14
CTC1_L_00290008-04
1 70462U 26700PR  26037.47804398  .00000000  00000+0  00000-0 0  9994
2 70462  85.0000  84.0000 0000000   0.0000 354.0000 15.18623352    15
CTC1_L_00290009-01
1 70463U 23715AP  26037.47804398  .00000000  00000+0  00000-0 0  9998
2 70463  85.0000  96.0000 0000000   0.0000  96.0000 15.18623352    12
CTC1_L_00290009-02
1 70464U 22358IB  26037.47804398  .00000000  00000+0  00000-0 0  9991
2 70464  85.0000  96.0000 0000000   0.0000 186.0000 15.18623352    13
CTC1_L_00290009-03
1 70465U 26348UD  26037.47804398  .00000000  00000+0  00000-0 0  9995
2 70465  85.0000  96.0000 0000000   0.0000 276.0000 15.18623352    14
CTC1_L_00290009-04
1 70466U 25151FV  26037.47804398  .00000000  00000+0  00000-0 0  9997
2 70466  85.0000  96.0000 0000000   0.0000   6.0000 15.18623352    16
CTC1_L_00290010-01
1 70467U 26073YA  26037.47804398  .00000000  00000+0  00000-0 0  9992
2 70467  85.0000 108.0000 0000000   0.0000 108.0000 15.18623352    14
CTC1_L_00290010-02
1 70468U 26979MM  26037.47804398  .00000000  00000+0  00000-0 0  9998
2 70468  85.0000 108.0000 0000000   0.0000 198.0000 15.18623352    14
CTC1_L_00290010-03
1 70469U 24720YY  26037.47804398  .00000000  00000+0  00000-0 0  9991
2 70469  85.0000 108.0000 0000000   0.0000 288.0000 15.18623352    15
CTC1_L_00290010-04
1 70470U 22228SU  26037.47804398  .00000000  00000+0  00000-0 0  9994
2 70470  85.0000 108.0000 0000000   0.0000  18.0000 15.18623352    18
CTC1_L_00290011-01
1 70471U 24091XA  26037.47804398  .00000000  00000+0  00000-0 0  9995
2 70471  85.0000 120.0000 0000000   0.0000 120.0000 15.18623352    17
CTC1_L_00290011-02
1 70472U 25237HY  26037.47804398  .00000000  00000+0  00000-0 0  9999
2 70472  85.0000 120.0000 0000000   0.0000 210.0000 15.18623352    18
CTC1_L_00290011-03
1 70473U 22067VD  26037.47804398  .00000000  00000+0  00000-0 0  9998
2 70473  85.0000 120.0000 0000000   0.0000 300.0000 15.18623352    19
CTC1_L_00290011-04
1 70474U 22850PS  26037.47804398  .00000000  00000+0  00000-0 0  9999
2 70474  85.0000 120.0000 0000000   0.0000  30.0000 15.18623352    10
CTC1_L_00290012-01
1 70475U 24183RO  26037.47804398  .00000000  00000+0  00000-0 0  9991
2 70475  85.0000 132.0000 0000000   0.0000 132.0000 15.18623352    17
CTC1_L_00290012-02
1 70476U 22054GL  26037.47804398  .00000000  00000+0  00000-0 0  9997
2 70476  85.0000 132.0000 0000000   0.0000 222.0000 15.18623352    18
CTC1_L_00290012-03
1 70477U 26333BW  26037.47804398  .00000000  00000+0  00000-0 0  9992
2 70477  85.0000 132.0000 0000000   0.0000 312.0000 15.18623352    19
CTC1_L_00290012-04
1 70478U 26786IY  26037.47804398  .00000000  00000+0  00000-0 0  9995
2 70478  85.0000 132.0000 0000000   0.0000  42.0000 15.18623352    10
CTC1_L_00290013-01
1 70479U 23269M   26037.47804398  .00000000  00000+0  00000-0 0  9999
2 70479  85.0000 144.0000 0000000   0.0000 144.0000 15.18623352    17
CTC1_L_00290013-02
1 70480U 22944PB  26037.47804398  .00000000  00000+0  00000-0 0  9990
2 70480  85.0000 144.0000 0000000   0.0000 234.0000 15.18623352    19
CTC1_L_00290013-03
1 70481U 22505KP  26037.47804398  .00000000  00000+0  00000-0 0  9994
2 70481  85.0000 144.0000 0000000   0.0000 324.0000 15.18623352    10
CTC1_L_00290013-04
1 70482U 26606I   26037.47804398  .00000000  00000+0  00000-0 0  9991
2 70482  85.0000 144.0000 0000000   0.0000  54.0000 15.18623352    11
CTC1_L_00290014-01
1 70483U 26601SK  26037.47804398  .00000000  00000+0  00000-0 0  9997
2 70483  85.0000 156.0000 0000000   0.0000 156.0000 15.18623352    18
CTC1_L_00290014-02
1 70484U 22277LB  26037.47804398  .00000000  00000+0  00000-0 0  9993
2 70484  85.0000 156.0000 0000000   0.0000 246.0000 15.18623352    19
CTC1_L_00290014-03
1 70485U 22049LB  26037.47804398  .00000000  00000+0  00000-0 0  9991
2 70485  85.0000 156.0000 0000000   0.0000 336.0000 15.18623352    10
CTC1_L_00290014-04
1 70486U 22124DC  26037.47804398  .00000000  00000+0  00000-0 0  9996
2 70486  85.0000 156.0000 0000000   0.0000  66.0000 15.18623352    11
CTC1_L_00290015-01
1 70487U 22301EM  26037.47804398  .00000000  00000+0  00000-0 0  9994
2 70487  85.0000 168.0000 0000000   0.0000 168.0000 15.18623352    18
CTC1_L_00290015-02
1 70488U 24175ZS  26037.47804398  .00000000  00000+0  00000-0 0  9996
2 70488  85.0000 168.0000 0000000   0.0000 258.0000 15.18623352    19
CTC1_L_00290015-03
1 70489U 26988SL  26037.47804398  .00000000  00000+0  00000-0 0  9991
2 70489  85.0000 168.0000 0000000   0.0000 348.0000 15.18623352    10
CTC1_L_00290015-04
1 70490U 24233OU  26037.47804398  .00000000  00000+0  00000-0 0  9994
2 70490  85.0000 168.0000 0000000   0.0000  78.0000 15.18623352    12
CTC1_L_00290016-01
1 70491U 25041ND  26037.47804398  .00000000  00000+0  00000-0 0  9993
2 70491  85.0000 180.0000 0000000   0.0000 180.0000 15.18623352    11
CTC1_L_00290016-02
1 70492U 26619DE  26037.47804398  .00000000  00000+0  00000-0 0  9996
2 70492  85.0000 180.0000 0000000   0.0000 270.0000 15.18623352    12
